ONEWEB-0309             
1 49095U 21075W   23274.18652916  .00000216  00000+0  52219-3 0  9998
2 49095  87.9170 202.6093 0001697  54.2049 305.9240 13.17653614104195
ONEWEB-0310             
1 49096U 21075X   23273.45784132  .00000333  00000+0  88993-3 0  9992
2 49096  87.9078 187.6268 0001874  66.1128 294.0197 13.12442064106232
ONEWEB-0311             
1 49097U 21075Y   23273.50946355 -.00000034  00000+0 -11946-3 0  9990
2 49097  87.9171 202.7469 0001506  85.4965 274.6338 13.17650132104167
ONEWEB-0312             
1 49098U 21075Z   23274.05365107  .00000018  00000+0  14292-4 0  9990
2 49098  87.9255 202.6355 0001396  67.5570 292.5709 13.17646644104191
ONEWEB-0313             
1 49099U 21075AA  23274.18443986 -.00000140  00000+0 -39422-3 0  9996
2 49099  87.9244 202.6252 0001480  71.6695 288.4598 13.17646813104226
ONEWEB-0314             
1 49100U 21075AB  23273.72248646  .00000102  00000+0  22931-3 0  9997
2 49100  87.9169 202.6977 0001296  67.6150 292.5119 13.17652764104121
ONEWEB-0315             
1 49101U 21075AC  23273.50550111 -.00000023  00000+0 -10020-3 0  9997
2 49101  87.9071 187.6270 0001986  83.2744 276.8611 13.12444230106228
ONEWEB-0316             
1 49102U 21075AD  23274.19824215  .00000132  00000+0  30272-3 0  9993
2 49102  87.9221 172.3864 0001605  82.8571 277.2744 13.18684518107748
